{"type": "FeatureCollection", "features": [ {"type": "Feature", "properties": {"norad_id": 34979, "name": "COSMOS 2251 DEB", "group": "cosmos-2251-debris", "lat": 3.0428358811735334, "lon": -113.44256701831812, "alt_km": 607.3591035841309, "timestamp": "2025-12-23T16:57:12.750518+00:00", "meta": {"OBJECT_NAME": "COSMOS 2251 DEB", "OBJECT_ID": "1993-036AFJ", "EPOCH": "2025-12-22T16:35:49.545024", "MEAN_MOTION": 14.7951388, "ECCENTRICITY": 0.00491991, "INCLINATION": 74.0391, "RA_OF_ASC_NODE": 247.682, "ARG_OF_PERICENTER": 323.5515, "MEAN_ANOMALY": 36.2314, "EPHEMERIS_TYPE": 0, "CLASSIFICATION_TYPE": "U", "NORAD_CAT_ID": 34979, "ELEMENT_SET_NO": 999, "REV_AT_EPOCH": 88367, "BSTAR": 0.0010881328, "MEAN_MOTION_DOT": 8.281e-05, "MEAN_MOTION_DDOT": 0}, "tle": {"line1": "1 34979U 93036AFJ 25356.69154566  .00008281  00000+0  10881-2 0  9994", "line2": "2 34979  74.0391 247.6820 0049199 323.5515  36.2314 14.79513880883670"}}, "geometry": {"type": "Point", "coordinates": [-113.44256701831812, 3.0428358811735334]}}, {"type": "Feature", "properties": {"norad_id": 34990, "name": "COSMOS 2251 DEB", "group": "cosmos-2251-debris", "lat": 73.37537730634837, "lon": -55.634523914152474, "alt_km": 753.7774059837548, "timestamp": "2025-12-23T16:57:12.750528+00:00", "meta": {"OBJECT_NAME": "COSMOS 2251 DEB", "OBJECT_ID": "1993-036AFN", "EPOCH": "2025-12-15T10:28:28.781472", "MEAN_MOTION": 14.42382837, "ECCENTRICITY": 0.00165597, "INCLINATION": 74.0457, "RA_OF_ASC_NODE": 246.3361, "ARG_OF_PERICENTER": 308.9911, "MEAN_ANOMALY": 50.977, "EPHEMERIS_TYPE": 0, "CLASSIFICATION_TYPE": "U", "NORAD_CAT_ID": 34990, "ELEMENT_SET_NO": 999, "REV_AT_EPOCH": 87385, "BSTAR": 0.00031884459, "MEAN_MOTION_DOT": 1.029e-05, "MEAN_MOTION_DDOT": 0}, "tle": {"line1": "1 34990U 93036AFN 25349.43644423  .00001029  00000+0  31884-3 0  9997", "line2": "2 34990  74.0457 246.3361 0016559 308.9911  50.9770 14.42382837873857"}}, "geometry": {"type": "Point", "coordinates": [-55.634523914152474, 73.37537730634837]}}, {"type": "Feature", "properties": {"norad_id": 34997, "name": "COSMOS 2251 DEB", "group": "cosmos-2251-debris", "lat": 18.68046097896218, "lon": -63.84052119128291, "alt_km": 769.3777753147433, "timestamp": "2025-12-23T16:57:12.750539+00:00", "meta": {"OBJECT_NAME": "COSMOS 2251 DEB", "OBJECT_ID": "1993-036AFV", "EPOCH": "2025-12-22T02:39:53.440416", "MEAN_MOTION": 14.45657457, "ECCENTRICITY": 0.0097328, "INCLINATION": 73.8808, "RA_OF_ASC_NODE": 293.5509, "ARG_OF_PERICENTER": 267.0492, "MEAN_ANOMALY": 91.9523, "EPHEMERIS_TYPE": 0, "CLASSIFICATION_TYPE": "U", "NORAD_CAT_ID": 34997, "ELEMENT_SET_NO": 999, "REV_AT_EPOCH": 70882, "BSTAR": 0.0015391452, "MEAN_MOTION_DOT": 5.746e-05, "MEAN_MOTION_DDOT": 0}, "tle": {"line1": "1 34997U 93036AFV 25356.11103519  .00005746  00000+0  15391-2 0  9997", "line2": "2 34997  73.8808 293.5509 0097328 267.0492  91.9523 14.45657457708822"}}, "geometry": {"type": "Point", "coordinates": [-63.84052119128291, 18.68046097896218]}}, {"type": "Feature", "properties": {"norad_id": 34998, "name": "COSMOS 2251 DEB", "group": "cosmos-2251-debris", "lat": 40.88475984575016, "lon": 153.75702847715118, "alt_km": 731.7907298669315, "timestamp": "2025-12-23T16:57:12.750549+00:00", "meta": {"OBJECT_NAME": "COSMOS 2251 DEB", "OBJECT_ID": "1993-036AFW", "EPOCH": "2025-12-22T03:28:26.266080", "MEAN_MOTION": 14.49318679, "ECCENTRICITY": 0.00214468, "INCLINATION": 74.0103, "RA_OF_ASC_NODE": 142.3159, "ARG_OF_PERICENTER": 286.5677, "MEAN_ANOMALY": 251.5263, "EPHEMERIS_TYPE": 0, "CLASSIFICATION_TYPE": "U", "NORAD_CAT_ID": 34998, "ELEMENT_SET_NO": 999, "REV_AT_EPOCH": 87556, "BSTAR": 0.00058847392, "MEAN_MOTION_DOT": 2.226e-05, "MEAN_MOTION_DDOT": 0}, "tle": {"line1": "1 34998U 93036AFW 25356.14474845  .00002226  00000+0  58847-3 0  9998", "line2": "2 34998  74.0103 142.3159 0021446 286.5677 251.5263 14.49318679875560"}}, "geometry": {"type": "Point", "coordinates": [153.75702847715118, 40.88475984575016]}}, {"type": "Feature", "properties": {"norad_id": 35012, "name": "COSMOS 2251 DEB", "group": "cosmos-2251-debris", "lat": -46.024196490137385, "lon": -71.4547289307, "alt_km": 688.5802715949085, "timestamp": "2025-12-23T16:57:12.750574+00:00", "meta": {"OBJECT_NAME": "COSMOS 2251 DEB", "OBJECT_ID": "1993-036AFZ", "EPOCH": "2025-12-22T16:38:38.272128", "MEAN_MOTION": 14.45560841, "ECCENTRICITY": 0.00814852, "INCLINATION": 74.0208, "RA_OF_ASC_NODE": 93.1592, "ARG_OF_PERICENTER": 231.2389, "MEAN_ANOMALY": 128.147, "EPHEMERIS_TYPE": 0, "CLASSIFICATION_TYPE": "U", "NORAD_CAT_ID": 35012, "ELEMENT_SET_NO": 999, "REV_AT_EPOCH": 87705, "BSTAR": 0.00016031267, "MEAN_MOTION_DOT": 5.6e-06, "MEAN_MOTION_DDOT": 0}, "tle": {"line1": "1 35012U 93036AFZ 25356.69349852  .00000560  00000+0  16031-3 0  9993", "line2": "2 35012  74.0208  93.1592 0081485 231.2389 128.1470 14.45560841877055"}}, "geometry": {"type": "Point", "coordinates": [-71.4547289307, -46.024196490137385]}}, {"type": "Feature", "properties": {"norad_id": 35014, "name": "COSMOS 2251 DEB", "group": "cosmos-2251-debris", "lat": 62.78941421505146, "lon": 55.97270341754227, "alt_km": 640.6434248042151, "timestamp": "2025-12-23T16:57:12.750587+00:00", "meta": {"OBJECT_NAME": "COSMOS 2251 DEB", "OBJECT_ID": "1993-036AGB", "EPOCH": "2025-12-22T09:43:37.618464", "MEAN_MOTION": 14.75357031, "ECCENTRICITY": 0.00066485, "INCLINATION": 73.9987, "RA_OF_ASC_NODE": 24.596, "ARG_OF_PERICENTER": 203.6446, "MEAN_ANOMALY": 156.4423, "EPHEMERIS_TYPE": 0, "CLASSIFICATION_TYPE": "U", "NORAD_CAT_ID": 35014, "ELEMENT_SET_NO": 999, "REV_AT_EPOCH": 71479, "BSTAR": 0.0015862083, "MEAN_MOTION_DOT": 0.00010749, "MEAN_MOTION_DDOT": 0}, "tle": {"line1": "1 35014U 93036AGB 25356.40529651  .00010749  00000+0  15862-2 0  9991", "line2": "2 35014  73.9987  24.5960 0006648 203.6446 156.4423 14.75357031714792"}}, "geometry": {"type": "Point", "coordinates": [55.97270341754227, 62.78941421505146]}}, {"type": "Feature", "properties": {"norad_id": 35015, "name": "COSMOS 2251 DEB", "group": "cosmos-2251-debris", "lat": 53.81623773844648, "lon": -122.6928002363312, "alt_km": 681.4841117659189, "timestamp": "2025-12-23T16:57:12.750598+00:00", "meta": {"OBJECT_NAME": "COSMOS 2251 DEB", "OBJECT_ID": "1993-036AGC", "EPOCH": "2025-12-21T09:05:04.900416", "MEAN_MOTION": 14.46918455, "ECCENTRICITY": 0.00743638, "INCLINATION": 73.9465, "RA_OF_ASC_NODE": 218.4969, "ARG_OF_PERICENTER": 85.0123, "MEAN_ANOMALY": 91.7115, "EPHEMERIS_TYPE": 0, "CLASSIFICATION_TYPE": "U", "NORAD_CAT_ID": 35015, "ELEMENT_SET_NO": 999, "REV_AT_EPOCH": 65565, "BSTAR": 0.0005445635, "MEAN_MOTION_DOT": 2.019e-05, "MEAN_MOTION_DDOT": 0}, "tle": {"line1": "1 35015U 93036AGC 25355.37852894  .00002019  00000+0  54456-3 0  9999", "line2": "2 35015  73.9465 218.4969 0074363  85.0123  91.7115 14.46918455655659"}}, "geometry": {"type": "Point", "coordinates": [-122.6928002363312, 53.81623773844648]}}, {"type": "Feature", "properties": {"norad_id": 35016, "name": "COSMOS 2251 DEB", "group": "cosmos-2251-debris", "lat": -25.500853348504595, "lon": -93.71607418922521, "alt_km": 846.3085643134227, "timestamp": "2025-12-23T16:57:12.750609+00:00", "meta": {"OBJECT_NAME": "COSMOS 2251 DEB", "OBJECT_ID": "1993-036AGD", "EPOCH": "2025-12-21T05:33:15.838848", "MEAN_MOTION": 14.35075882, "ECCENTRICITY": 0.01140745, "INCLINATION": 73.9302, "RA_OF_ASC_NODE": 278.7521, "ARG_OF_PERICENTER": 193.9283, "MEAN_ANOMALY": 317.5381, "EPHEMERIS_TYPE": 0, "CLASSIFICATION_TYPE": "U", "NORAD_CAT_ID": 35016, "ELEMENT_SET_NO": 999, "REV_AT_EPOCH": 86904, "BSTAR": 0.00026149228, "MEAN_MOTION_DOT": 7.75e-06, "MEAN_MOTION_DDOT": 0}, "tle": {"line1": "1 35016U 93036AGD 25355.23143332  .00000775  00000+0  26149-3 0  9990", "line2": "2 35016  73.9302 278.7521 0114074 193.9283 317.5381 14.35075882869043"}}, "geometry": {"type": "Point", "coordinates": [-93.71607418922521, -25.500853348504595]}}, {"type": "Feature", "properties": {"norad_id": 35018, "name": "COSMOS 2251 DEB", "group": "cosmos-2251-debris", "lat": -73.88369272497629, "lon": -4.029415327900751, "alt_km": 1009.6143435658387, "timestamp": "2025-12-23T16:57:12.750620+00:00", "meta": {"OBJECT_NAME": "COSMOS 2251 DEB", "OBJECT_ID": "1993-036AGF", "EPOCH": "2025-12-21T14:27:14.171040", "MEAN_MOTION": 13.67131243, "ECCENTRICITY": 0.0348897, "INCLINATION": 73.9753, "RA_OF_ASC_NODE": 95.386, "ARG_OF_PERICENTER": 2.6305, "MEAN_ANOMALY": 357.6538, "EPHEMERIS_TYPE": 0, "CLASSIFICATION_TYPE": "U", "NORAD_CAT_ID": 35018, "ELEMENT_SET_NO": 999, "REV_AT_EPOCH": 83307, "BSTAR": 0.00070084, "MEAN_MOTION_DOT": 8.72e-06, "MEAN_MOTION_DDOT": 0}, "tle": {"line1": "1 35018U 93036AGF 25355.60224735  .00000872  00000+0  70084-3 0  9995", "line2": "2 35018  73.9753  95.3860 0348897   2.6305 357.6538 13.67131243833078"}}, "geometry": {"type": "Point", "coordinates": [-4.029415327900751, -73.88369272497629]}}, {"type": "Feature", "properties": {"norad_id": 35020, "name": "COSMOS 2251 DEB", "group": "cosmos-2251-debris", "lat": 72.53814584543406, "lon": -116.63184032432032, "alt_km": 734.2625748278833, "timestamp": "2025-12-23T16:57:12.750631+00:00", "meta": {"OBJECT_NAME": "COSMOS 2251 DEB", "OBJECT_ID": "1993-036AGH", "EPOCH": "2025-12-22T20:52:40.621440", "MEAN_MOTION": 14.6281967, "ECCENTRICITY": 0.00912679, "INCLINATION": 74.045, "RA_OF_ASC_NODE": 179.5398, "ARG_OF_PERICENTER": 291.2908, "MEAN_ANOMALY": 67.8532, "EPHEMERIS_TYPE": 0, "CLASSIFICATION_TYPE": "U", "NORAD_CAT_ID": 35020, "ELEMENT_SET_NO": 999, "REV_AT_EPOCH": 88386, "BSTAR": 0.00012972073, "MEAN_MOTION_DOT": 6.69e-06, "MEAN_MOTION_DDOT": 0}, "tle": {"line1": "1 35020U 93036AGH 25356.86991460  .00000669  00000+0  12972-3 0  9999", "line2": "2 35020  74.0450 179.5398 0091267 291.2908  67.8532 14.62819670883868"}}, "geometry": {"type": "Point", "coordinates": [-116.63184032432032, 72.53814584543406]}}]}